{
  "norad_id": 55364,
  "name": "STARLINK-5627",
  "history": [
    {
      "epoch": "2026-04-14T16:22:20.466048Z",
      "apogee_km": 533.7780455691554,
      "perigee_km": 532.0820697132103,
      "latitude_deg": 2.5527645101158034e-05,
      "longitude_deg": 13.768650801538724,
      "height_km": 532.6210629653393,
      "semi_major_axis_km": 6911.067057641183,
      "eccentricity": 0.0001227,
      "inclination_deg": 43.0029,
      "raan_deg": 102.209,
      "arg_perigee_deg": 275.9234,
      "mean_anomaly_deg": 84.1472,
      "mean_motion_rev_day": 15.11071803
    },
    {
      "epoch": "2026-04-15T16:10:07.775040Z",
      "apogee_km": 533.744830656171,
      "perigee_km": 532.0709755806356,
      "latitude_deg": -4.313565754887449e-05,
      "longitude_deg": 10.383972117814052,
      "height_km": 532.5898011983081,
      "semi_major_axis_km": 6911.0449031184025,
      "eccentricity": 0.0001211,
      "inclination_deg": 43.0023,
      "raan_deg": 96.7488,
      "arg_perigee_deg": 276.6242,
      "mean_anomaly_deg": 83.4465,
      "mean_motion_rev_day": 15.11079069
    },
    {
      "epoch": "2026-04-16T15:57:55.096128Z",
      "apogee_km": 533.7148234389269,
      "perigee_km": 532.085200911456,
      "latitude_deg": -2.5434923280268924e-06,
      "longitude_deg": 7.000159487745735,
      "height_km": 532.5982917410047,
      "semi_major_axis_km": 6911.037012175191,
      "eccentricity": 0.0001179,
      "inclination_deg": 43.0028,
      "raan_deg": 91.2894,
      "arg_perigee_deg": 275.6477,
      "mean_anomaly_deg": 84.4234,
      "mean_motion_rev_day": 15.11081657
    },
    {
      "epoch": "2026-04-17T22:06:27.815328Z",
      "apogee_km": 533.7450416383917,
      "perigee_km": 532.0934374182689,
      "latitude_deg": 3.934341950080483e-06,
      "longitude_deg": -93.28916719001776,
      "height_km": 532.637487140413,
      "semi_major_axis_km": 6911.05623952833,
      "eccentricity": 0.00011949,
      "inclination_deg": 43.0038,
      "raan_deg": 84.3743,
      "arg_perigee_deg": 274.1904,
      "mean_anomaly_deg": 85.8805,
      "mean_motion_rev_day": 15.11075351
    },
    {
      "epoch": "2026-04-18T15:33:17.110944Z",
      "apogee_km": 533.0749132235906,
      "perigee_km": 531.7522338438166,
      "latitude_deg": -1.2025524028234401e-05,
      "longitude_deg": 0.28249355607743587,
      "height_km": 532.840215194984,
      "semi_major_axis_km": 6910.550573533704,
      "eccentricity": 9.57e-05,
      "inclination_deg": 43.0018,
      "raan_deg": 80.3679,
      "arg_perigee_deg": 169.2293,
      "mean_anomaly_deg": 190.8573,
      "mean_motion_rev_day": 15.11241209
    },
    {
      "epoch": "2026-04-19T20:00:01.999008Z",
      "apogee_km": 525.8170561349616,
      "perigee_km": 522.6875128333759,
      "latitude_deg": -12.418031827518842,
      "longitude_deg": -87.69207999227316,
      "height_km": 526.0800150702696,
      "semi_major_axis_km": 6902.3892844841685,
      "eccentricity": 0.0002267,
      "inclination_deg": 43.001,
      "raan_deg": 73.8298,
      "arg_perigee_deg": 265.9906,
      "mean_anomaly_deg": 75.7924,
      "mean_motion_rev_day": 15.13922307
    },
    {
      "epoch": "2026-04-20T14:00:03.000384Z",
      "apogee_km": 518.2798689260408,
      "perigee_km": 516.9409906050778,
      "latitude_deg": 37.90571343459113,
      "longitude_deg": 134.85870201903708,
      "height_km": 520.2464465464461,
      "semi_major_axis_km": 6895.747429765559,
      "eccentricity": 9.708e-05,
      "inclination_deg": 43.0016,
      "raan_deg": 69.6774,
      "arg_perigee_deg": 322.9279,
      "mean_anomaly_deg": 153.1811,
      "mean_motion_rev_day": 15.16110106
    },
    {
      "epoch": "2026-04-21T20:00:01.999008Z",
      "apogee_km": 512.3085144879087,
      "perigee_km": 510.3422619223138,
      "latitude_deg": 40.53158239662961,
      "longitude_deg": 27.057195863019214,
      "height_km": 514.7530513324516,
      "semi_major_axis_km": 6889.462388205111,
      "eccentricity": 0.0001427,
      "inclination_deg": 43.0005,
      "raan_deg": 62.7314,
      "arg_perigee_deg": 319.4009,
      "mean_anomaly_deg": 148.7961,
      "mean_motion_rev_day": 15.18185229
    },
    {
      "epoch": "2026-04-22T20:00:03.000384Z",
      "apogee_km": 507.6225682467748,
      "perigee_km": 506.33642848488125,
      "latitude_deg": -0.6809902919253353,
      "longitude_deg": 86.98610917733612,
      "height_km": 507.14948825997965,
      "semi_major_axis_km": 6885.116498365828,
      "eccentricity": 9.34e-05,
      "inclination_deg": 43.0005,
      "raan_deg": 57.1616,
      "arg_perigee_deg": 299.014,
      "mean_anomaly_deg": 241.9032,
      "mean_motion_rev_day": 15.19622875
    },
    {
      "epoch": "2026-04-23T14:00:04.000032Z",
      "apogee_km": 505.31032439588034,
      "perigee_km": 501.7326877717369,
      "latitude_deg": -20.865947455957027,
      "longitude_deg": -32.64521294429814,
      "height_km": 507.68188471080884,
      "semi_major_axis_km": 6881.658506083808,
      "eccentricity": 0.00025994,
      "inclination_deg": 43.0013,
      "raan_deg": 52.985,
      "arg_perigee_deg": 256.9496,
      "mean_anomaly_deg": 71.7911,
      "mean_motion_rev_day": 15.20768421
    },
    {
      "epoch": "2026-04-24T20:00:01.999008Z",
      "apogee_km": 500.3796245853664,
      "perigee_km": 497.12273034451937,
      "latitude_deg": -12.608086844140448,
      "longitude_deg": -120.67289394798192,
      "height_km": 500.75022037271503,
      "semi_major_axis_km": 6876.888177464943,
      "eccentricity": 0.0002368,
      "inclination_deg": 43.0003,
      "raan_deg": 45.9962,
      "arg_perigee_deg": 260.7088,
      "mean_anomaly_deg": 80.7876,
      "mean_motion_rev_day": 15.22351075
    },
    {
      "epoch": "2026-04-25T20:00:01.000224Z",
      "apogee_km": 496.2525750770328,
      "perigee_km": 493.95416349754396,
      "latitude_deg": 39.649706932630174,
      "longitude_deg": -51.35575284149809,
      "height_km": 498.4052914521905,
      "semi_major_axis_km": 6873.240369287289,
      "eccentricity": 0.0001672,
      "inclination_deg": 42.9995,
      "raan_deg": 40.3876,
      "arg_perigee_deg": 286.7968,
      "mean_anomaly_deg": 142.0513,
      "mean_motion_rev_day": 15.23563163
    },
    {
      "epoch": "2026-04-26T22:00:00.999936Z",
      "apogee_km": 492.2897072940905,
      "perigee_km": 490.5168163433191,
      "latitude_deg": -42.101513146742974,
      "longitude_deg": 103.89229915901339,
      "height_km": 503.5270800020903,
      "semi_major_axis_km": 6869.5402618187045,
      "eccentricity": 0.00012904,
      "inclination_deg": 43.0002,
      "raan_deg": 34.303,
      "arg_perigee_deg": 231.6893,
      "mean_anomaly_deg": 26.8226,
      "mean_motion_rev_day": 15.24794273
    },
    {
      "epoch": "2026-04-27T20:00:03.000384Z",
      "apogee_km": 489.46049559944277,
      "perigee_km": 487.61610661356553,
      "latitude_deg": -41.7775001733244,
      "longitude_deg": 125.64196935018207,
      "height_km": 500.40167745497905,
      "semi_major_axis_km": 6866.675301106504,
      "eccentricity": 0.0001343,
      "inclination_deg": 43.0003,
      "raan_deg": 29.1534,
      "arg_perigee_deg": 250.8338,
      "mean_anomaly_deg": 6.0161,
      "mean_motion_rev_day": 15.2574865
    },
    {
      "epoch": "2026-04-28T20:00:01.000224Z",
      "apogee_km": 489.09068065116026,
      "perigee_km": 487.00747979442076,
      "latitude_deg": -2.684472397504038,
      "longitude_deg": -136.1520064620018,
      "height_km": 488.47902491642026,
      "semi_major_axis_km": 6866.18608022279,
      "eccentricity": 0.0001517,
      "inclination_deg": 43.0003,
      "raan_deg": 23.5214,
      "arg_perigee_deg": 251.3247,
      "mean_anomaly_deg": 104.829,
      "mean_motion_rev_day": 15.25911719
    },
    {
      "epoch": "2026-04-29T20:00:01.999008Z",
      "apogee_km": 489.00989992001905,
      "perigee_km": 487.05166886790994,
      "latitude_deg": 42.87425742780069,
      "longitude_deg": -41.840796383503225,
      "height_km": 492.0300687303652,
      "semi_major_axis_km": 6866.167784393964,
      "eccentricity": 0.0001426,
      "inclination_deg": 43.0003,
      "raan_deg": 17.8888,
      "arg_perigee_deg": 254.0911,
      "mean_anomaly_deg": 201.8271,
      "mean_motion_rev_day": 15.25917818
    },
    {
      "epoch": "2026-04-30T14:00:01.999872Z",
      "apogee_km": 489.1245471031107,
      "perigee_km": 487.09831719078375,
      "latitude_deg": -42.46319262844353,
      "longitude_deg": -157.4623756272754,
      "height_km": 500.16512837923597,
      "semi_major_axis_km": 6866.2484321469465,
      "eccentricity": 0.00014755,
      "inclination_deg": 43.0002,
      "raan_deg": 13.6621,
      "arg_perigee_deg": 255.9217,
      "mean_anomaly_deg": 4.7837,
      "mean_motion_rev_day": 15.25890934
    },
    {
      "epoch": "2026-05-02T08:51:03.612384Z",
      "apogee_km": 488.9934355186115,
      "perigee_km": 487.13269530088473,
      "latitude_deg": 1.597464630866656e-05,
      "longitude_deg": 10.551439404917557,
      "height_km": 487.85427138885643,
      "semi_major_axis_km": 6866.200065409747,
      "eccentricity": 0.0001355,
      "inclination_deg": 43.0028,
      "raan_deg": 3.6043,
      "arg_perigee_deg": 269.1336,
      "mean_anomaly_deg": 90.936,
      "mean_motion_rev_day": 15.25907057
    },
    {
      "epoch": "2026-05-03T19:24:45.446112Z",
      "apogee_km": 488.90935015719424,
      "perigee_km": 487.10080833352094,
      "latitude_deg": 4.387370777471083e-05,
      "longitude_deg": -157.4043371994825,
      "height_km": 487.7262938680751,
      "semi_major_axis_km": 6866.142079245357,
      "eccentricity": 0.0001317,
      "inclination_deg": 43.0013,
      "raan_deg": 355.4922,
      "arg_perigee_deg": 273.5332,
      "mean_anomaly_deg": 86.5369,
      "mean_motion_rev_day": 15.25926387
    }
  ]
}